[
    {
        "Altitude(m)": 704669.5701333459,
        "Argument of Periapsis(deg)": 0.0,
        "Eccentricity": 0.0,
        "Inclination(deg)": 45.0,
        "Latitude(deg)": 32.41868275898207,
        "Longitude(deg)": 29.2035640711869,
        "Mean Anomaly(deg)": 49.09089999999999,
        "RAAN(deg)": 90.0,
        "Satellite Name": "Constellation 1 399",
        "Satellite Number": 399,
        "Semi-Major Axis(m)": 7083131.272910544,
        "Time(s)": 0
    },
    {
        "Altitude(m)": 704675.5198746293,
        "Argument of Periapsis(deg)": 5.994800624540561e-05,
        "Eccentricity": 0.0,
        "Inclination(deg)": 45.0,
        "Latitude(deg)": 32.45208881939116,
        "Longitude(deg)": 29.25952306691024,
        "Mean Anomaly(deg)": 49.15160114024992,
        "RAAN(deg)": 89.99994341083443,
        "Satellite Name": "Constellation 1 399",
        "Satellite Number": 399,
        "Semi-Major Axis(m)": 7083131.272910544,
        "Time(s)": 1
    },
    {
        "Altitude(m)": 704681.4711335673,
        "Argument of Periapsis(deg)": 0.00011989601249081122,
        "Eccentricity": 0.0,
        "Inclination(deg)": 45.0,
        "Latitude(deg)": 32.485466038660434,
        "Longitude(deg)": 29.315526359323684,
        "Mean Anomaly(deg)": 49.2123022804998,
        "RAAN(deg)": 89.99988682166885,
        "Satellite Name": "Constellation 1 399",
        "Satellite Number": 399,
        "Semi-Major Axis(m)": 7083131.272910544,
        "Time(s)": 2
    },
    {
        "Altitude(m)": 704687.423870981,
        "Argument of Periapsis(deg)": 0.00017984401873621686,
        "Eccentricity": 0.0,
        "Inclination(deg)": 45.0,
        "Latitude(deg)": 32.51881435913896,
        "Longitude(deg)": 29.371573999898185,
        "Mean Anomaly(deg)": 49.27300342074971,
        "RAAN(deg)": 89.9998302325033,
        "Satellite Name": "Constellation 1 399",
        "Satellite Number": 399,
        "Semi-Major Axis(m)": 7083131.272910544,
        "Time(s)": 3
    },
    {
        "Altitude(m)": 704693.3780476904,
        "Argument of Periapsis(deg)": 0.00023979202498162244,
        "Eccentricity": 0.0,
        "Inclination(deg)": 45.0,
        "Latitude(deg)": 32.55213372310341,
        "Longitude(deg)": 29.427666039988043,
        "Mean Anomaly(deg)": 49.33370456099958,
        "RAAN(deg)": 89.99977364333773,
        "Satellite Name": "Constellation 1 399",
        "Satellite Number": 399,
        "Semi-Major Axis(m)": 7083131.272910544,
        "Time(s)": 4
    },
    {
        "Altitude(m)": 704699.3336245348,
        "Argument of Periapsis(deg)": 0.00029974003122702807,
        "Eccentricity": 0.0,
        "Inclination(deg)": 45.0,
        "Latitude(deg)": 32.58542407275816,
        "Longitude(deg)": 29.483802530829845,
        "Mean Anomaly(deg)": 49.394405701249504,
        "RAAN(deg)": 89.99971705417215,
        "Satellite Name": "Constellation 1 399",
        "Satellite Number": 399,
        "Semi-Major Axis(m)": 7083131.272910544,
        "Time(s)": 5
    },
    {
        "Altitude(m)": 704705.2905623624,
        "Argument of Periapsis(deg)": 0.00035968803747243373,
        "Eccentricity": 0.0,
        "Inclination(deg)": 45.0,
        "Latitude(deg)": 32.61868535023525,
        "Longitude(deg)": 29.539983523541547,
        "Mean Anomaly(deg)": 49.45510684149938,
        "RAAN(deg)": 89.99966046500658,
        "Satellite Name": "Constellation 1 399",
        "Satellite Number": 399,
        "Semi-Major Axis(m)": 7083131.272910544,
        "Time(s)": 6
    },
    {
        "Altitude(m)": 704711.2488220268,
        "Argument of Periapsis(deg)": 0.00041963604371783933,
        "Eccentricity": 0.0,
        "Inclination(deg)": 45.0,
        "Latitude(deg)": 32.65191749759431,
        "Longitude(deg)": 29.596208901024546,
        "Mean Anomaly(deg)": 49.51580798174929,
        "RAAN(deg)": 89.99960387584102,
        "Satellite Name": "Constellation 1 399",
        "Satellite Number": 399,
        "Semi-Major Axis(m)": 7083131.272910544,
        "Time(s)": 7
    },
    {
        "Altitude(m)": 704717.2083643889,
        "Argument of Periapsis(deg)": 0.0004795840499632449,
        "Eccentricity": 0.0,
        "Inclination(deg)": 45.0,
        "Latitude(deg)": 32.685120456823626,
        "Longitude(deg)": 29.652479050350845,
        "Mean Anomaly(deg)": 49.57650912199916,
        "RAAN(deg)": 89.99954728667544,
        "Satellite Name": "Constellation 1 399",
        "Satellite Number": 399,
        "Semi-Major Axis(m)": 7083131.272910544,
        "Time(s)": 8
    },
    {
        "Altitude(m)": 704723.1691503291,
        "Argument of Periapsis(deg)": 0.0005395320562086505,
        "Eccentricity": 0.0,
        "Inclination(deg)": 45.0,
        "Latitude(deg)": 32.71829416983852,
        "Longitude(deg)": 29.708793854179888,
        "Mean Anomaly(deg)": 49.63721026224909,
        "RAAN(deg)": 89.99949069750987,
        "Satellite Name": "Constellation 1 399",
        "Satellite Number": 399,
        "Semi-Major Axis(m)": 7083131.272910544,
        "Time(s)": 9
    },
    {
        "Altitude(m)": 704729.1311407313,
        "Argument of Periapsis(deg)": 0.0005994800624540561,
        "Eccentricity": 0.0,
        "Inclination(deg)": 45.0,
        "Latitude(deg)": 32.751438578482556,
        "Longitude(deg)": 29.765153363145632,
        "Mean Anomaly(deg)": 49.69791140249902,
        "RAAN(deg)": 89.99943410834429,
        "Satellite Name": "Constellation 1 399",
        "Satellite Number": 399,
        "Semi-Major Axis(m)": 7083131.272910544,
        "Time(s)": 10
    },
    {
        "Altitude(m)": 704735.094296496,
        "Argument of Periapsis(deg)": 0.0006594280686994618,
        "Eccentricity": 0.0,
        "Inclination(deg)": 45.0,
        "Latitude(deg)": 32.784553624527284,
        "Longitude(deg)": 29.821557627758647,
        "Mean Anomaly(deg)": 49.7586125427489,
        "RAAN(deg)": 89.99937751917874,
        "Satellite Name": "Constellation 1 399",
        "Satellite Number": 399,
        "Semi-Major Axis(m)": 7083131.272910544,
        "Time(s)": 11
    },
    {
        "Altitude(m)": 704741.0585785207,
        "Argument of Periapsis(deg)": 0.0007193760749448675,
        "Eccentricity": 0.0,
        "Inclination(deg)": 45.0,
        "Latitude(deg)": 32.81763924967234,
        "Longitude(deg)": 29.878006698405194,
        "Mean Anomaly(deg)": 49.8193136829988,
        "RAAN(deg)": 89.99932093001317,
        "Satellite Name": "Constellation 1 399",
        "Satellite Number": 399,
        "Semi-Major Axis(m)": 7083131.272910544,
        "Time(s)": 12
    },
    {
        "Altitude(m)": 704747.0239477293,
        "Argument of Periapsis(deg)": 0.000779324081190273,
        "Eccentricity": 0.0,
        "Inclination(deg)": 45.0,
        "Latitude(deg)": 32.85069539554549,
        "Longitude(deg)": 29.934500625346082,
        "Mean Anomaly(deg)": 49.88001482324867,
        "RAAN(deg)": 89.99926434084759,
        "Satellite Name": "Constellation 1 399",
        "Satellite Number": 399,
        "Semi-Major Axis(m)": 7083131.272910544,
        "Time(s)": 13
    },
    {
        "Altitude(m)": 704752.9903650472,
        "Argument of Periapsis(deg)": 0.0008392720874356787,
        "Eccentricity": 0.0,
        "Inclination(deg)": 45.0,
        "Latitude(deg)": 32.88372200370271,
        "Longitude(deg)": 29.991039458716006,
        "Mean Anomaly(deg)": 49.9407159634986,
        "RAAN(deg)": 89.99920775168202,
        "Satellite Name": "Constellation 1 399",
        "Satellite Number": 399,
        "Semi-Major Axis(m)": 7083131.272910544,
        "Time(s)": 14
    },
    {
        "Altitude(m)": 704758.9577914154,
        "Argument of Periapsis(deg)": 0.0008992200936810842,
        "Eccentricity": 0.0,
        "Inclination(deg)": 45.0,
        "Latitude(deg)": 32.916719015627855,
        "Longitude(deg)": 30.047623080425044,
        "Mean Anomaly(deg)": 50.00141710374849,
        "RAAN(deg)": 89.99915116251645,
        "Satellite Name": "Constellation 1 399",
        "Satellite Number": 399,
        "Semi-Major Axis(m)": 7083131.272910544,
        "Time(s)": 15
    },
    {
        "Altitude(m)": 704764.9261877835,
        "Argument of Periapsis(deg)": 0.0009591680999264898,
        "Eccentricity": 0.0,
        "Inclination(deg)": 45.0,
        "Latitude(deg)": 32.94968637273406,
        "Longitude(deg)": 30.10425187654642,
        "Mean Anomaly(deg)": 50.062118243998384,
        "RAAN(deg)": 89.99909457335089,
        "Satellite Name": "Constellation 1 399",
        "Satellite Number": 399,
        "Semi-Major Axis(m)": 7083131.272910544,
        "Time(s)": 16
    },
    {
        "Altitude(m)": 704770.8955151193,
        "Argument of Periapsis(deg)": 0.0010191161061718953,
        "Eccentricity": 0.0,
        "Inclination(deg)": 45.0,
        "Latitude(deg)": 32.98262401636188,
        "Longitude(deg)": 30.16092572873274,
        "Mean Anomaly(deg)": 50.12281938424825,
        "RAAN(deg)": 89.9990379841853,
        "Satellite Name": "Constellation 1 399",
        "Satellite Number": 399,
        "Semi-Major Axis(m)": 7083131.272910544,
        "Time(s)": 17
    },
    {
        "Altitude(m)": 704776.8657343875,
        "Argument of Periapsis(deg)": 0.001079064112417301,
        "Eccentricity": 0.0,
        "Inclination(deg)": 45.0,
        "Latitude(deg)": 33.01553188778075,
        "Longitude(deg)": 30.217644686603517,
        "Mean Anomaly(deg)": 50.183520524498185,
        "RAAN(deg)": 89.99898139501974,
        "Satellite Name": "Constellation 1 399",
        "Satellite Number": 399,
        "Semi-Major Axis(m)": 7083131.272910544,
        "Time(s)": 18
    }
]